CCSDS_OMM_VERS = 2.0
CREATION_DATE  = 
ORIGINATOR     = 

OBJECT_NAME    = COSMOS 2242
OBJECT_ID      = 1993-024A
CENTER_NAME    = EARTH
REF_FRAME      = TEME
TIME_SYSTEM    = UTC
MEAN_ELEMENT_THEORY = SGP/SGP4

EPOCH          = 2026-03-21T22:31:12.772128
MEAN_MOTION    = 14.96598199
ECCENTRICITY   = .00149083
INCLINATION    = 82.5153
RA_OF_ASC_NODE = 254.9971
ARG_OF_PERICENTER = 263.8566
MEAN_ANOMALY   = 96.0958

EPHEMERIS_TYPE = 0
CLASSIFICATION_TYPE = U
NORAD_CAT_ID   = 22626
ELEMENT_SET_NO = 999
REV_AT_EPOCH   = 78222
BSTAR          = .17351103E-3
MEAN_MOTION_DOT = .2005E-4
MEAN_MOTION_DDOT = 0

CCSDS_OMM_VERS = 2.0
CREATION_DATE  = 
ORIGINATOR     = 

OBJECT_NAME    = SL-16 R/B
OBJECT_ID      = 1993-059B
CENTER_NAME    = EARTH
REF_FRAME      = TEME
TIME_SYSTEM    = UTC
MEAN_ELEMENT_THEORY = SGP/SGP4

EPOCH          = 2026-03-21T23:16:28.972128
MEAN_MOTION    = 14.17234732
ECCENTRICITY   = .0017819
INCLINATION    = 70.9930
RA_OF_ASC_NODE = 345.2321
ARG_OF_PERICENTER = 198.7387
MEAN_ANOMALY   = 161.3083

EPHEMERIS_TYPE = 0
CLASSIFICATION_TYPE = U
NORAD_CAT_ID   = 22803
ELEMENT_SET_NO = 999
REV_AT_EPOCH   = 68127
BSTAR          = .10612352E-3
MEAN_MOTION_DOT = .167E-5
MEAN_MOTION_DDOT = 0

CCSDS_OMM_VERS = 2.0
CREATION_DATE  = 
ORIGINATOR     = 

OBJECT_NAME    = ARIANE 40 R/B
OBJECT_ID      = 1993-061H
CENTER_NAME    = EARTH
REF_FRAME      = TEME
TIME_SYSTEM    = UTC
MEAN_ELEMENT_THEORY = SGP/SGP4

EPOCH          = 2026-03-21T22:03:11.966400
MEAN_MOTION    = 14.32866932
ECCENTRICITY   = .0009687
INCLINATION    = 98.4893
RA_OF_ASC_NODE = 149.5639
ARG_OF_PERICENTER = 244.5969
MEAN_ANOMALY   = 115.4213

EPHEMERIS_TYPE = 0
CLASSIFICATION_TYPE = U
NORAD_CAT_ID   = 22830
ELEMENT_SET_NO = 999
REV_AT_EPOCH   = 69585
BSTAR          = .84567347E-4
MEAN_MOTION_DOT = .188E-5
MEAN_MOTION_DDOT = 0

CCSDS_OMM_VERS = 2.0
CREATION_DATE  = 
ORIGINATOR     = 

OBJECT_NAME    = COSMOS 2278
OBJECT_ID      = 1994-023A
CENTER_NAME    = EARTH
REF_FRAME      = TEME
TIME_SYSTEM    = UTC
MEAN_ELEMENT_THEORY = SGP/SGP4

EPOCH          = 2026-03-21T21:41:12.214176
MEAN_MOTION    = 14.14377910
ECCENTRICITY   = .00088555
INCLINATION    = 71.0537
RA_OF_ASC_NODE = 149.5467
ARG_OF_PERICENTER = 352.9307
MEAN_ANOMALY   = 7.1690

EPHEMERIS_TYPE = 0
CLASSIFICATION_TYPE = U
NORAD_CAT_ID   = 23087
ELEMENT_SET_NO = 999
REV_AT_EPOCH   = 64653
BSTAR          = -.90999575E-4
MEAN_MOTION_DOT = -.221E-5
MEAN_MOTION_DDOT = 0

CCSDS_OMM_VERS = 2.0
CREATION_DATE  = 
ORIGINATOR     = 

OBJECT_NAME    = SL-16 R/B
OBJECT_ID      = 1994-023B
CENTER_NAME    = EARTH
REF_FRAME      = TEME
TIME_SYSTEM    = UTC
MEAN_ELEMENT_THEORY = SGP/SGP4

EPOCH          = 2026-03-21T22:40:14.683296
MEAN_MOTION    = 14.15010823
ECCENTRICITY   = .00054764
INCLINATION    = 70.9998
RA_OF_ASC_NODE = 45.1483
ARG_OF_PERICENTER = 273.7058
MEAN_ANOMALY   = 86.3438

EPHEMERIS_TYPE = 0
CLASSIFICATION_TYPE = U
NORAD_CAT_ID   = 23088
ELEMENT_SET_NO = 999
REV_AT_EPOCH   = 64782
BSTAR          = .98591768E-4
MEAN_MOTION_DOT = .143E-5
MEAN_MOTION_DDOT = 0

CCSDS_OMM_VERS = 2.0
CREATION_DATE  = 
ORIGINATOR     = 

OBJECT_NAME    = SL-16 R/B
OBJECT_ID      = 1994-074B
CENTER_NAME    = EARTH
REF_FRAME      = TEME
TIME_SYSTEM    = UTC
MEAN_ELEMENT_THEORY = SGP/SGP4

EPOCH          = 2026-03-21T16:59:54.655872
MEAN_MOTION    = 14.79421140
ECCENTRICITY   = .00067423
INCLINATION    = 97.7092
RA_OF_ASC_NODE = 111.0386
ARG_OF_PERICENTER = 169.6423
MEAN_ANOMALY   = 309.9711

EPHEMERIS_TYPE = 0
CLASSIFICATION_TYPE = U
NORAD_CAT_ID   = 23343
ELEMENT_SET_NO = 999
REV_AT_EPOCH   = 68902
BSTAR          = .67570117E-4
MEAN_MOTION_DOT = .455E-5
MEAN_MOTION_DDOT = 0

CCSDS_OMM_VERS = 2.0
CREATION_DATE  = 
ORIGINATOR     = 

OBJECT_NAME    = SL-16 R/B
OBJECT_ID      = 1994-077B
CENTER_NAME    = EARTH
REF_FRAME      = TEME
TIME_SYSTEM    = UTC
MEAN_ELEMENT_THEORY = SGP/SGP4

EPOCH          = 2026-03-21T22:06:53.548704
MEAN_MOTION    = 14.15567338
ECCENTRICITY   = .00023855
INCLINATION    = 70.9846
RA_OF_ASC_NODE = 326.7576
ARG_OF_PERICENTER = 199.3073
MEAN_ANOMALY   = 160.7960

EPHEMERIS_TYPE = 0
CLASSIFICATION_TYPE = U
NORAD_CAT_ID   = 23405
ELEMENT_SET_NO = 999
REV_AT_EPOCH   = 61796
BSTAR          = .15435958E-3
MEAN_MOTION_DOT = .254E-5
MEAN_MOTION_DDOT = 0

CCSDS_OMM_VERS = 2.0
CREATION_DATE  = 
ORIGINATOR     = 

OBJECT_NAME    = ARIANE 40+ R/B
OBJECT_ID      = 1995-021B
CENTER_NAME    = EARTH
REF_FRAME      = TEME
TIME_SYSTEM    = UTC
MEAN_ELEMENT_THEORY = SGP/SGP4

EPOCH          = 2026-03-21T22:20:13.194528
MEAN_MOTION    = 14.39780798
ECCENTRICITY   = .00079753
INCLINATION    = 98.4475
RA_OF_ASC_NODE = 152.2462
ARG_OF_PERICENTER = 104.6884
MEAN_ANOMALY   = 68.8292

EPHEMERIS_TYPE = 0
CLASSIFICATION_TYPE = U
NORAD_CAT_ID   = 23561
ELEMENT_SET_NO = 999
REV_AT_EPOCH   = 62100
BSTAR          = .10367707E-3
MEAN_MOTION_DOT = .282E-5
MEAN_MOTION_DDOT = 0

CCSDS_OMM_VERS = 2.0
CREATION_DATE  = 
ORIGINATOR     = 

OBJECT_NAME    = SL-16 R/B
OBJECT_ID      = 1995-058B
CENTER_NAME    = EARTH
REF_FRAME      = TEME
TIME_SYSTEM    = UTC
MEAN_ELEMENT_THEORY = SGP/SGP4

EPOCH          = 2026-03-21T15:30:44.974368
MEAN_MOTION    = 14.15500897
ECCENTRICITY   = .00102121
INCLINATION    = 71.0220
RA_OF_ASC_NODE = 155.1543
ARG_OF_PERICENTER = 103.7162
MEAN_ANOMALY   = 256.5098

EPHEMERIS_TYPE = 0
CLASSIFICATION_TYPE = U
NORAD_CAT_ID   = 23705
ELEMENT_SET_NO = 999
REV_AT_EPOCH   = 56954
BSTAR          = .5328339E-5
MEAN_MOTION_DOT = -.37E-6
MEAN_MOTION_DDOT = 0

CCSDS_OMM_VERS = 2.0
CREATION_DATE  = 
ORIGINATOR     = 

OBJECT_NAME    = SL-16 R/B
OBJECT_ID      = 1996-051B
CENTER_NAME    = EARTH
REF_FRAME      = TEME
TIME_SYSTEM    = UTC
MEAN_ELEMENT_THEORY = SGP/SGP4

EPOCH          = 2026-03-21T22:08:07.691136
MEAN_MOTION    = 14.12418977
ECCENTRICITY   = .00140466
INCLINATION    = 70.7596
RA_OF_ASC_NODE = 149.3489
ARG_OF_PERICENTER = 128.7093
MEAN_ANOMALY   = 231.5285

EPHEMERIS_TYPE = 0
CLASSIFICATION_TYPE = U
NORAD_CAT_ID   = 24298
ELEMENT_SET_NO = 999
REV_AT_EPOCH   = 52337
BSTAR          = .82201617E-4
MEAN_MOTION_DOT = .103E-5
MEAN_MOTION_DDOT = 0

CCSDS_OMM_VERS = 2.0
CREATION_DATE  = 
ORIGINATOR     = 

OBJECT_NAME    = ORBVIEW 2 (SEASTAR)
OBJECT_ID      = 1997-037A
CENTER_NAME    = EARTH
REF_FRAME      = TEME
TIME_SYSTEM    = UTC
MEAN_ELEMENT_THEORY = SGP/SGP4

EPOCH          = 2026-03-21T21:28:06.489984
MEAN_MOTION    = 14.35503155
ECCENTRICITY   = .00027092
INCLINATION    = 98.8587
RA_OF_ASC_NODE = 245.5309
ARG_OF_PERICENTER = 45.9731
MEAN_ANOMALY   = 314.1677

EPHEMERIS_TYPE = 0
CLASSIFICATION_TYPE = U
NORAD_CAT_ID   = 24883
ELEMENT_SET_NO = 999
REV_AT_EPOCH   = 51022
BSTAR          = .1053239E-3
MEAN_MOTION_DOT = .256E-5
MEAN_MOTION_DDOT = 0

CCSDS_OMM_VERS = 2.0
CREATION_DATE  = 
ORIGINATOR     = 

OBJECT_NAME    = SL-16 R/B
OBJECT_ID      = 1998-043G
CENTER_NAME    = EARTH
REF_FRAME      = TEME
TIME_SYSTEM    = UTC
MEAN_ELEMENT_THEORY = SGP/SGP4

EPOCH          = 2026-03-21T20:52:34.341888
MEAN_MOTION    = 14.26052392
ECCENTRICITY   = .00095751
INCLINATION    = 98.8276
RA_OF_ASC_NODE = 34.3210
ARG_OF_PERICENTER = 345.5070
MEAN_ANOMALY   = 14.5834

EPHEMERIS_TYPE = 0
CLASSIFICATION_TYPE = U
NORAD_CAT_ID   = 25400
ELEMENT_SET_NO = 999
REV_AT_EPOCH   = 44072
BSTAR          = .44625309E-4
MEAN_MOTION_DOT = .61E-6
MEAN_MOTION_DDOT = 0

